[
  {
    "COMMENT": "GENERATED VIA SPACETRACK.ORG API",
    "ORIGINATOR": "18 SPCS",
    "NORAD_CAT_ID": "33105",
    "OBJECT_NAME": "JASON 2",
    "OBJECT_TYPE": "PAYLOAD",
    "CLASSIFICATION_TYPE": "U",
    "INTLDES": "08032A",
    "EPOCH": "2023-08-04 02:02:18",
    "EPOCH_MICROSECONDS": "913632",
    "MEAN_MOTION": "12.8766178",
    "ECCENTRICITY": "0.00081",
    "INCLINATION": "66.0402",
    "RA_OF_ASC_NODE": "94.7354",
    "ARG_OF_PERICENTER": "268.4594",
    "MEAN_ANOMALY": "243.6059",
    "EPHEMERIS_TYPE": "0",
    "ELEMENT_SET_NO": "999",
    "REV_AT_EPOCH": "70884",
    "BSTAR": "0.00020751",
    "MEAN_MOTION_DOT": "-0.0000001",
    "MEAN_MOTION_DDOT": "0",
    "FILE": "3970981",
    "TLE_LINE0": "0 JASON 2",
    "TLE_LINE1": "1 33105U 08032A   23216.08494113 -.00000010  00000-0  20751-3 0  9999",
    "TLE_LINE2": "2 33105  66.0402  94.7354 0008100 268.4594 243.6059 12.87661780708843",
    "OBJECT_ID": "2008-032A",
    "OBJECT_NUMBER": "33105",
    "SEMIMAJOR_AXIS": "7688.955",
    "PERIOD": "111.831",
    "APOGEE": "1317.048",
    "PERIGEE": "1304.592",
    "DECAYED": "0"
  },
  {
    "COMMENT": "GENERATED VIA SPACETRACK.ORG API",
    "ORIGINATOR": "18 SPCS",
    "NORAD_CAT_ID": "33105",
    "OBJECT_NAME": "JASON 2",
    "OBJECT_TYPE": "PAYLOAD",
    "CLASSIFICATION_TYPE": "U",
    "INTLDES": "08032A",
    "EPOCH": "2023-08-06 02:34:28",
    "EPOCH_MICROSECONDS": "998912",
    "MEAN_MOTION": "12.87661909",
    "ECCENTRICITY": "0.0008061",
    "INCLINATION": "66.0401",
    "RA_OF_ASC_NODE": "90.483",
    "ARG_OF_PERICENTER": "268.2386",
    "MEAN_ANOMALY": "257.6214",
    "EPHEMERIS_TYPE": "0",
    "ELEMENT_SET_NO": "999",
    "REV_AT_EPOCH": "70910",
    "BSTAR": "0.00012976",
    "MEAN_MOTION_DOT": "-0.00000029",
    "MEAN_MOTION_DDOT": "0",
    "FILE": "3972687",
    "TLE_LINE0": "0 JASON 2",
    "TLE_LINE1": "1 33105U 08032A   23218.10728008 -.00000029  00000-0  12976-3 0  9997",
    "TLE_LINE2": "2 33105  66.0401  90.4830 0008061 268.2386 257.6214 12.87661909709108",
    "OBJECT_ID": "2008-032A",
    "OBJECT_NUMBER": "33105",
    "SEMIMAJOR_AXIS": "7688.954",
    "PERIOD": "111.831",
    "APOGEE": "1317.017",
    "PERIGEE": "1304.621",
    "DECAYED": "0"
  },
  {
    "COMMENT": "GENERATED VIA SPACETRACK.ORG API",
    "ORIGINATOR": "18 SPCS",
    "NORAD_CAT_ID": "33105",
    "OBJECT_NAME": "JASON 2",
    "OBJECT_TYPE": "PAYLOAD",
    "CLASSIFICATION_TYPE": "U",
    "INTLDES": "08032A",
    "EPOCH": "2023-08-08 03:03:46",
    "EPOCH_MICROSECONDS": "480320",
    "MEAN_MOTION": "12.8766198",
    "ECCENTRICITY": "0.0008053",
    "INCLINATION": "66.0401",
    "RA_OF_ASC_NODE": "86.2346",
    "ARG_OF_PERICENTER": "268.1732",
    "MEAN_ANOMALY": "262.2218",
    "EPHEMERIS_TYPE": "0",
    "ELEMENT_SET_NO": "999",
    "REV_AT_EPOCH": "70936",
    "BSTAR": "0.000083145",
    "MEAN_MOTION_DOT": "-0.00000041",
    "MEAN_MOTION_DDOT": "0",
    "FILE": "3974537",
    "TLE_LINE0": "0 JASON 2",
    "TLE_LINE1": "1 33105U 08032A   23220.12762130 -.00000041  00000-0  83145-4 0  9997",
    "TLE_LINE2": "2 33105  66.0401  86.2346 0008053 268.1732 262.2218 12.87661980709361",
    "OBJECT_ID": "2008-032A",
    "OBJECT_NUMBER": "33105",
    "SEMIMAJOR_AXIS": "7688.954",
    "PERIOD": "111.831",
    "APOGEE": "1317.011",
    "PERIGEE": "1304.627",
    "DECAYED": "0"
  },
  {
    "COMMENT": "GENERATED VIA SPACETRACK.ORG API",
    "ORIGINATOR": "18 SPCS",
    "NORAD_CAT_ID": "33105",
    "OBJECT_NAME": "JASON 2",
    "OBJECT_TYPE": "PAYLOAD",
    "CLASSIFICATION_TYPE": "U",
    "INTLDES": "08032A",
    "EPOCH": "2023-08-10 09:07:45",
    "EPOCH_MICROSECONDS": "918048",
    "MEAN_MOTION": "12.87662046",
    "ECCENTRICITY": "0.0008041",
    "INCLINATION": "66.04",
    "RA_OF_ASC_NODE": "81.4975",
    "ARG_OF_PERICENTER": "268.1566",
    "MEAN_ANOMALY": "264.1169",
    "EPHEMERIS_TYPE": "0",
    "ELEMENT_SET_NO": "999",
    "REV_AT_EPOCH": "70965",
    "BSTAR": "0.000046097",
    "MEAN_MOTION_DOT": "-0.00000051",
    "MEAN_MOTION_DDOT": "0",
    "FILE": "3976619",
    "TLE_LINE0": "0 JASON 2",
    "TLE_LINE1": "1 33105U 08032A   23222.38039257 -.00000051  00000-0  46097-4 0  9990",
    "TLE_LINE2": "2 33105  66.0400  81.4975 0008041 268.1566 264.1169 12.87662046709659",
    "OBJECT_ID": "2008-032A",
    "OBJECT_NUMBER": "33105",
    "SEMIMAJOR_AXIS": "7688.954",
    "PERIOD": "111.831",
    "APOGEE": "1317.001",
    "PERIGEE": "1304.636",
    "DECAYED": "0"
  },
  {
    "COMMENT": "GENERATED VIA SPACETRACK.ORG API",
    "ORIGINATOR": "18 SPCS",
    "NORAD_CAT_ID": "33105",
    "OBJECT_NAME": "JASON 2",
    "OBJECT_TYPE": "PAYLOAD",
    "CLASSIFICATION_TYPE": "U",
    "INTLDES": "08032A",
    "EPOCH": "2023-08-12 19:56:39",
    "EPOCH_MICROSECONDS": "810912",
    "MEAN_MOTION": "12.87662041",
    "ECCENTRICITY": "0.0008011",
    "INCLINATION": "66.0399",
    "RA_OF_ASC_NODE": "76.3443",
    "ARG_OF_PERICENTER": "267.876",
    "MEAN_ANOMALY": "103.346",
    "EPHEMERIS_TYPE": "0",
    "ELEMENT_SET_NO": "999",
    "REV_AT_EPOCH": "70997",
    "BSTAR": "0.000073972",
    "MEAN_MOTION_DOT": "-0.00000044",
    "MEAN_MOTION_DDOT": "0",
    "FILE": "3978631",
    "TLE_LINE0": "0 JASON 2",
    "TLE_LINE1": "1 33105U 08032A   23224.83101633 -.00000044  00000-0  73972-4 0  9994",
    "TLE_LINE2": "2 33105  66.0399  76.3443 0008011 267.8760 103.3460 12.87662041709976",
    "OBJECT_ID": "2008-032A",
    "OBJECT_NUMBER": "33105",
    "SEMIMAJOR_AXIS": "7688.954",
    "PERIOD": "111.831",
    "APOGEE": "1316.978",
    "PERIGEE": "1304.659",
    "DECAYED": "0"
  },
  {
    "COMMENT": "GENERATED VIA SPACETRACK.ORG API",
    "ORIGINATOR": "18 SPCS",
    "NORAD_CAT_ID": "33105",
    "OBJECT_NAME": "JASON 2",
    "OBJECT_TYPE": "PAYLOAD",
    "CLASSIFICATION_TYPE": "U",
    "INTLDES": "08032A",
    "EPOCH": "2023-08-15 00:56:17",
    "EPOCH_MICROSECONDS": "473632",
    "MEAN_MOTION": "12.87662096",
    "ECCENTRICITY": "0.0008009",
    "INCLINATION": "66.0399",
    "RA_OF_ASC_NODE": "71.7012",
    "ARG_OF_PERICENTER": "267.7722",
    "MEAN_ANOMALY": "258.1546",
    "EPHEMERIS_TYPE": "0",
    "ELEMENT_SET_NO": "999",
    "REV_AT_EPOCH": "71025",
    "BSTAR": "0.00009029",
    "MEAN_MOTION_DOT": "-0.00000039",
    "MEAN_MOTION_DDOT": "0",
    "FILE": "3980494",
    "TLE_LINE0": "0 JASON 2",
    "TLE_LINE1": "1 33105U 08032A   23227.03909113 -.00000039  00000-0  90290-4 0  9994",
    "TLE_LINE2": "2 33105  66.0399  71.7012 0008009 267.7722 258.1546 12.87662096710258",
    "OBJECT_ID": "2008-032A",
    "OBJECT_NUMBER": "33105",
    "SEMIMAJOR_AXIS": "7688.953",
    "PERIOD": "111.831",
    "APOGEE": "1316.977",
    "PERIGEE": "1304.660",
    "DECAYED": "0"
  },
  {
    "COMMENT": "GENERATED VIA SPACETRACK.ORG API",
    "ORIGINATOR": "18 SPCS",
    "NORAD_CAT_ID": "33105",
    "OBJECT_NAME": "JASON 2",
    "OBJECT_TYPE": "PAYLOAD",
    "CLASSIFICATION_TYPE": "U",
    "INTLDES": "08032A",
    "EPOCH": "2023-08-17 11:47:32",
    "EPOCH_MICROSECONDS": "989920",
    "MEAN_MOTION": "12.87662142",
    "ECCENTRICITY": "0.0007998",
    "INCLINATION": "66.0399",
    "RA_OF_ASC_NODE": "66.5447",
    "ARG_OF_PERICENTER": "267.57",
    "MEAN_ANOMALY": "104.9051",
    "EPHEMERIS_TYPE": "0",
    "ELEMENT_SET_NO": "999",
    "REV_AT_EPOCH": "71057",
    "BSTAR": "0.000027631",
    "MEAN_MOTION_DOT": "-0.00000055",
    "MEAN_MOTION_DDOT": "0",
    "FILE": "3982569",
    "TLE_LINE0": "0 JASON 2",
    "TLE_LINE1": "1 33105U 08032A   23229.49135405 -.00000055  00000-0  27631-4 0  9998",
    "TLE_LINE2": "2 33105  66.0399  66.5447 0007998 267.5700 104.9051 12.87662142710578",
    "OBJECT_ID": "2008-032A",
    "OBJECT_NUMBER": "33105",
    "SEMIMAJOR_AXIS": "7688.953",
    "PERIOD": "111.831",
    "APOGEE": "1316.968",
    "PERIGEE": "1304.669",
    "DECAYED": "0"
  },
  {
    "COMMENT": "GENERATED VIA SPACETRACK.ORG API",
    "ORIGINATOR": "18 SPCS",
    "NORAD_CAT_ID": "33105",
    "OBJECT_NAME": "JASON 2",
    "OBJECT_TYPE": "PAYLOAD",
    "CLASSIFICATION_TYPE": "U",
    "INTLDES": "08032A",
    "EPOCH": "2023-08-19 12:19:55",
    "EPOCH_MICROSECONDS": "40736",
    "MEAN_MOTION": "12.87662099",
    "ECCENTRICITY": "0.0007988",
    "INCLINATION": "66.0401",
    "RA_OF_ASC_NODE": "62.2918",
    "ARG_OF_PERICENTER": "267.3504",
    "MEAN_ANOMALY": "119.5631",
    "EPHEMERIS_TYPE": "0",
    "ELEMENT_SET_NO": "999",
    "REV_AT_EPOCH": "71083",
    "BSTAR": "-0.000037294",
    "MEAN_MOTION_DOT": "-0.00000072",
    "MEAN_MOTION_DDOT": "0",
    "FILE": "3984384",
    "TLE_LINE0": "0 JASON 2",
    "TLE_LINE1": "1 33105U 08032A   23231.51383149 -.00000072  00000-0 -37294-4 0  9990",
    "TLE_LINE2": "2 33105  66.0401  62.2918 0007988 267.3504 119.5631 12.87662099710833",
    "OBJECT_ID": "2008-032A",
    "OBJECT_NUMBER": "33105",
    "SEMIMAJOR_AXIS": "7688.953",
    "PERIOD": "111.831",
    "APOGEE": "1316.960",
    "PERIGEE": "1304.677",
    "DECAYED": "0"
  },
  {
    "COMMENT": "GENERATED VIA SPACETRACK.ORG API",
    "ORIGINATOR": "18 SPCS",
    "NORAD_CAT_ID": "33105",
    "OBJECT_NAME": "JASON 2",
    "OBJECT_TYPE": "PAYLOAD",
    "CLASSIFICATION_TYPE": "U",
    "INTLDES": "08032A",
    "EPOCH": "2023-08-21 13:01:09",
    "EPOCH_MICROSECONDS": "649056",
    "MEAN_MOTION": "12.87662118",
    "ECCENTRICITY": "0.0007972",
    "INCLINATION": "66.0401",
    "RA_OF_ASC_NODE": "58.0259",
    "ARG_OF_PERICENTER": "267.297",
    "MEAN_ANOMALY": "162.6254",
    "EPHEMERIS_TYPE": "0",
    "ELEMENT_SET_NO": "999",
    "REV_AT_EPOCH": "71109",
    "BSTAR": "-0.000056067",
    "MEAN_MOTION_DOT": "-0.00000076",
    "MEAN_MOTION_DDOT": "0",
    "FILE": "3986083",
    "TLE_LINE0": "0 JASON 2",
    "TLE_LINE1": "1 33105U 08032A   23233.54247279 -.00000076  00000-0 -56067-4 0  9991",
    "TLE_LINE2": "2 33105  66.0401  58.0259 0007972 267.2970 162.6254 12.87662118711094",
    "OBJECT_ID": "2008-032A",
    "OBJECT_NUMBER": "33105",
    "SEMIMAJOR_AXIS": "7688.953",
    "PERIOD": "111.831",
    "APOGEE": "1316.948",
    "PERIGEE": "1304.689",
    "DECAYED": "0"
  }
]